SENTINEL-6              
1 46984U 20086A   23295.55351945 -.00000049  00000+0  50356-4 0  9991
2 46984  66.0434 346.9162 0007898 268.0799  91.9312 12.80930399136267
